$$SOE
2460728.500000000, A.D. 2025-Feb-22 00:00:00.0000, -4.568257056743608E+08, -3.079301010326199E+06, 1.052096410530148E+08,
2460735.500000000, A.D. 2025-Mar-01 00:00:00.0000, -4.568352135925647E+08, -1.285628708468882E+07, 1.050103511699610E+08,
2460742.500000000, A.D. 2025-Mar-08 00:00:00.0000, -4.566296237096315E+08, -2.262726895660227E+07, 1.047616185293272E+08,
2460749.500000000, A.D. 2025-Mar-15 00:00:00.0000, -4.562091855076858E+08, -3.238765233693595E+07, 1.044635958532697E+08,
2460756.500000000, A.D. 2025-Mar-22 00:00:00.0000, -4.555742270634301E+08, -4.213285083072399E+07, 1.041164537540015E+08,
2460763.500000000, A.D. 2025-Mar-29 00:00:00.0000, -4.547251556527802E+08, -5.185828840845718E+07, 1.037203805983087E+08,
2460770.500000000, A.D. 2025-Apr-05 00:00:00.0000, -4.536624566874509E+08, -6.155940098560163E+07, 1.032755822952370E+08,
2460777.500000000, A.D. 2025-Apr-12 00:00:00.0000, -4.523866929060584E+08, -7.123163700960869E+07, 1.027822821903994E+08,
2460784.500000000, A.D. 2025-Apr-19 00:00:00.0000, -4.508985040066473E+08, -8.087045794032457E+07, 1.022407210116156E+08,
2460791.500000000, A.D. 2025-Apr-26 00:00:00.0000, -4.491986064509813E+08, -9.047133883026105E+07, 1.016511568250376E+08,
2460798.500000000, A.D. 2025-May-03 00:00:00.0000, -4.472877933291419E+08, -1.000297689873512E+08, 1.010138649937748E+08,
2460805.500000000, A.D. 2025-May-10 00:00:00.0000, -4.451669342572976E+08, -1.095412527123699E+08, 1.003291381376678E+08,
2460812.500000000, A.D. 2025-May-17 00:00:00.0000, -4.428369752724385E+08, -1.190013101526080E+08, 9.959728608764042E+07,
2460819.500000000, A.D. 2025-May-24 00:00:00.0000, -4.402989385499477E+08, -1.284054783269098E+08, 9.881863581406608E+07,
2460826.500000000, A.D. 2025-May-31 00:00:00.0000, -4.375539215254580E+08, -1.377493120119232E+08, 9.799353131587540E+07,
2460833.500000000, A.D. 2025-Jun-07 00:00:00.0000, -4.346030958206045E+08, -1.470283832858714E+08, 9.712233360510108E+07,
2460840.500000000, A.D. 2025-Jun-14 00:00:00.0000, -4.314477083358519E+08, -1.562382803985312E+08, 9.620542094871625E+07,
2460847.500000000, A.D. 2025-Jun-21 00:00:00.0000, -4.280890832936048E+08, -1.653746092412275E+08, 9.524318898880020E+07,
2460854.500000000, A.D. 2025-Jun-28 00:00:00.0000, -4.245286221038388E+08, -1.744329956535518E+08, 9.423605059852286E+07,
2460861.500000000, A.D. 2025-Jul-05 00:00:00.0000, -4.207678025675962E+08, -1.834090864107879E+08, 9.318443578888641E+07,
2460868.500000000, A.D. 2025-Jul-12 00:00:00.0000, -4.168081786071628E+08, -1.922985496987683E+08, 9.208879170895240E+07,
2460875.500000000, A.D. 2025-Jul-19 00:00:00.0000, -4.126513803321111E+08, -2.010970756535764E+08, 9.094958267484160E+07,
2460882.500000000, A.D. 2025-Jul-26 00:00:00.0000, -4.082991142308849E+08, -2.098003770248558E+08, 8.976729020365201E+07,
2460889.500000000, A.D. 2025-Aug-02 00:00:00.0000, -4.037531634221202E+08, -2.184041899427168E+08, 8.854241304810883E+07,
2460896.500000000, A.D. 2025-Aug-09 00:00:00.0000, -3.990153879414668E+08, -2.269042748042310E+08, 8.727546722853699E+07,
2460903.500000000, A.D. 2025-Aug-16 00:00:00.0000, -3.940877249859100E+08, -2.352964173440827E+08, 8.596698604981378E+07,
2460910.500000000, A.D. 2025-Aug-23 00:00:00.0000, -3.889721888218124E+08, -2.435764298742579E+08, 8.461752007770362E+07,
2460917.500000000, A.D. 2025-Aug-30 00:00:00.0000, -3.836708700264093E+08, -2.517401519799992E+08, 8.322763710262112E+07,
2460924.500000000, A.D. 2025-Sep-06 00:00:00.0000, -3.781859354790704E+08, -2.597834496729960E+08, 8.179792230237733E+07,
2460931.500000000, A.D. 2025-Sep-13 00:00:00.0000, -3.725196307712032E+08, -2.677022154866614E+08, 8.032897855401808E+07,
2460938.500000000, A.D. 2025-Sep-20 00:00:00.0000, -3.666742817609526E+08, -2.754923711606120E+08, 7.882142646036345E+07,
2460945.500000000, A.D. 2025-Sep-27 00:00:00.0000, -3.606522942138624E+08, -2.831498698043870E+08, 7.727590424868730E+07,
2460952.500000000, A.D. 2025-Oct-04 00:00:00.0000, -3.544561535445178E+08, -2.906706970017198E+08, 7.569306777027667E+07,
2460959.500000000, A.D. 2025-Oct-11 00:00:00.0000, -3.480884250302951E+08, -2.980508717993503E+08, 7.407359055746308E+07,
2460966.500000000, A.D. 2025-Oct-18 00:00:00.0000, -3.415517542112809E+08, -3.052864478566759E+08, 7.241816388916585E+07,
2460973.500000000, A.D. 2025-Oct-25 00:00:00.0000, -3.348488673352532E+08, -3.123735147474223E+08, 7.072749685272872E+07,
2460980.500000000, A.D. 2025-Nov-01 00:00:00.0000, -3.279825718070946E+08, -3.193081993997219E+08, 6.900231639941068E+07,
2460987.500000000, A.D. 2025-Nov-08 00:00:00.0000, -3.209557566068715E+08, -3.260866677074602E+08, 6.724336738738276E+07,
2460994.500000000, A.D. 2025-Nov-15 00:00:00.0000, -3.137713925273876E+08, -3.327051263725486E+08, 6.545141259332252E+07,
2461001.500000000, A.D. 2025-Nov-22 00:00:00.0000, -3.064325318270718E+08, -3.391598247586155E+08, 6.362723267294341E+07,
2461008.500000000, A.D. 2025-Nov-29 00:00:00.0000, -2.989423074493968E+08, -3.454470556207855E+08, 6.177162617627613E+07,
2461015.500000000, A.D. 2025-Dec-06 00:00:00.0000, -2.913039340828349E+08, -3.515631548465178E+08, 5.988540981409638E+07,
2461022.500000000, A.D. 2025-Dec-13 00:00:00.0000, -2.835207106231955E+08, -3.575045035778719E+08, 5.796941865888609E+07,
2461029.500000000, A.D. 2025-Dec-20 00:00:00.0000, -2.755960205413086E+08, -3.632675316939604E+08, 5.602450604269415E+07,
2461036.500000000, A.D. 2025-Dec-27 00:00:00.0000, -2.675333312267993E+08, -3.688487200644333E+08, 5.405154346170181E+07,
2461043.500000000, A.D. 2026-Jan-03 00:00:00.0000, -2.593361937644724E+08, -3.742446021912624E+08, 5.205142057066090E+07,
2461050.500000000, A.D. 2026-Jan-10 00:00:00.0000, -2.510082430311794E+08, -3.794517659189642E+08, 5.002504520125899E+07,
2461057.500000000, A.D. 2026-Jan-17 00:00:00.0000, -2.425531978782503E+08, -3.844668553055940E+08, 4.797334337509392E+07,
2461064.500000000, A.D. 2026-Jan-24 00:00:00.0000, -2.339748613190189E+08, -3.892865726322534E+08, 4.589725930539180E+07,
2461071.500000000, A.D. 2026-Jan-31 00:00:00.0000, -2.252771206952200E+08, -3.939076805585313E+08, 4.379775538408132E+07,
2461078.500000000, A.D. 2026-Feb-07 00:00:00.0000, -2.164639477575797E+08, -3.983270044808291E+08, 4.167581214317691E+07,
2461085.500000000, A.D. 2026-Feb-14 00:00:00.0000, -2.075393984039574E+08, -4.025414351082960E+08, 3.953242816519545E+07,
2461092.500000000, A.D. 2026-Feb-21 00:00:00.0000, -1.985076116836352E+08, -4.065479306787271E+08, 3.736861995335887E+07,
2461099.500000000, A.D. 2026-Feb-28 00:00:00.0000, -1.893728091484281E+08, -4.103435176600306E+08, 3.518542195439519E+07,
2461106.500000000, A.D. 2026-Mar-07 00:00:00.0000, -1.801392966042632E+08, -4.139252918862290E+08, 3.298388676229613E+07,
2461113.500000000, A.D. 2026-Mar-14 00:00:00.0000, -1.708114654824482E+08, -4.172904224610368E+08, 3.076508505682743E+07,
2461120.500000000, A.D. 2026-Mar-21 00:00:00.0000, -1.613937920436407E+08, -4.204361555322062E+08, 2.853010534939173E+07,
2461127.500000000, A.D. 2026-Mar-28 00:00:00.0000, -1.518908364200802E+08, -4.233598169081113E+08, 2.628005380387141E+07,
2461134.500000000, A.D. 2026-Apr-04 00:00:00.0000, -1.423072420954852E+08, -4.260588144813166E+08, 2.401605410802257E+07,
2461141.500000000, A.D. 2026-Apr-11 00:00:00.0000, -1.326477355438391E+08, -4.285306408177684E+08, 2.173924733990332E+07,
2461148.500000000, A.D. 2026-Apr-18 00:00:00.0000, -1.229171258623575E+08, -4.307728759169643E+08, 1.945079181316629E+07,
2461155.500000000, A.D. 2026-Apr-25 00:00:00.0000, -1.131203043470298E+08, -4.327831901274480E+08, 1.715186289723748E+07,
2461162.500000000, A.D. 2026-May-02 00:00:00.0000, -1.032622439744094E+08, -4.345593472466175E+08, 1.484365280624363E+07,
2461169.500000000, A.D. 2026-May-09 00:00:00.0000, -9.334799865975441E+07, -4.360992078702607E+08, 1.252737033894783E+07,
2461176.500000000, A.D. 2026-May-16 00:00:00.0000, -8.338270190844992E+07, -4.374007328521038E+08, 1.020424054533488E+07,
2461183.500000000, A.D. 2026-May-23 00:00:00.0000, -7.337156480390142E+07, -4.384619858488845E+08, 7.875504397511423E+06,
2461190.500000000, A.D. 2026-May-30 00:00:00.0000, -6.331987540526802E+07, -4.392811346279608E+08, 5.542418680360973E+06,
2461197.500000000, A.D. 2026-Jun-06 00:00:00.0000, -5.323299986650825E+07, -4.398564544066253E+08, 3.206255862038195E+06,
2461204.500000000, A.D. 2026-Jun-13 00:00:00.0000, -4.311638160459618E+07, -4.401863330206763E+08, 8.683036228624284E+05,
2461211.500000000, A.D. 2026-Jun-20 00:00:00.0000, -3.297553901233310E+07, -4.402692749929471E+08, -1.470135673655182E+06,
2461218.500000000, A.D. 2026-Jun-27 00:00:00.0000, -2.281606340850001E+07, -4.401039048373619E+08, -3.807745441003859E+06,
2461225.500000000, A.D. 2026-Jul-04 00:00:00.0000, -1.264361721937553E+07, -4.396889703684878E+08, -6.143195325757891E+06,
2461232.500000000, A.D. 2026-Jul-11 00:00:00.0000, -2.463932131395339E+06, -4.390233461435514E+08, -8.475141694975257E+06,
2461239.500000000, A.D. 2026-Jul-18 00:00:00.0000, 7.717192884034328E+06, -4.381060370063201E+08, -1.080222816269422E+07,
2461246.500000000, A.D. 2026-Jul-25 00:00:00.0000, 1.789389370404452E+07, -4.369361817254777E+08, -1.312308615895829E+07,
2461253.500000000, A.D. 2026-Aug-01 00:00:00.0000, 2.806024339947878E+07, -4.355130567711037E+08, -1.543633555110902E+07,
2461260.500000000, A.D. 2026-Aug-08 00:00:00.0000, 3.821025501059892E+07, -4.338360802598751E+08, -1.774058534127295E+07,
2461267.500000000, A.D. 2026-Aug-15 00:00:00.0000, 4.833788517143974E+07, -4.319048156113638E+08, -2.003443444242588E+07,
2461274.500000000, A.D. 2026-Aug-22 00:00:00.0000, 5.843703782499518E+07, -4.297189736844183E+08, -2.231647236434594E+07,
2461281.500000000, A.D. 2026-Aug-29 00:00:00.0000, 6.850156574472648E+07, -4.272784147545740E+08, -2.458527971246275E+07,
2461288.500000000, A.D. 2026-Sep-05 00:00:00.0000, 7.852527200263247E+07, -4.245831531893445E+08, -2.683942893045992E+07,
$$EOE